OBJECT_NAME,OBJECT_ID,EPOCH,MEAN_MOTION,ECCENTRICITY,INCLINATION,RA_OF_ASC_NODE,ARG_OF_PERICENTER,MEAN_ANOMALY,EPHEMERIS_TYPE,CLASSIFICATION_TYPE,NORAD_CAT_ID,ELEMENT_SET_NO,REV_AT_EPOCH,BSTAR,MEAN_MOTION_DOT,MEAN_MOTION_DDOT
IRIDIUM 154,2018-061F,2026-07-19T07:48:10.498464,14.34217320,.00021976,86.3936,43.3633,89.2216,270.9232,0,U,43574,999,41801,-.739313E-6,.18E-6,0
IRIDIUM 163,2018-061G,2026-07-19T12:22:10.503840,14.34217733,.00021232,86.3935,43.1977,87.8173,272.3266,0,U,43575,999,41801,.13114611E-4,.57E-6,0
IRIDIUM 156,2018-061H,2026-07-19T11:45:38.270592,14.34218799,.00021374,86.3936,43.2157,93.4361,266.7080,0,U,43576,999,41800,.32265026E-4,.11E-5,0
IRIDIUM 164,2018-061J,2026-07-19T12:58:42.519360,14.34217329,.00022327,86.3934,43.2355,88.5060,271.6392,0,U,43577,999,41805,-.39834844E-4,-.92E-6,0
IRIDIUM 159,2018-061K,2026-07-19T12:13:02.430624,14.34217711,.00021349,86.3937,43.1848,87.7411,272.4029,0,U,43578,999,41801,.3375672E-5,.29E-6,0
IRIDIUM 180,2019-002A,2026-07-19T15:33:14.957856,14.34217279,.00020536,86.3992,340.0287,91.4543,268.6888,0,U,43922,999,39364,-.35517357E-4,-.8E-6,0
IRIDIUM 176,2019-002B,2026-07-19T10:39:01.432512,14.72252122,.00023429,86.6117,340.0527,91.4791,268.6695,0,U,43923,999,40399,.55883054E-4,.377E-5,0
IRIDIUM 168,2019-002C,2026-07-19T10:22:43.056192,14.34217657,.00021981,86.3998,340.1965,90.7646,269.3802,0,U,43924,999,39359,.36148809E-4,.121E-5,0
IRIDIUM 173,2019-002D,2026-07-19T15:05:50.938656,14.34218147,.00021469,86.3996,340.0021,92.8939,267.2503,0,U,43925,999,39360,.2138563E-4,.8E-6,0
IRIDIUM 169,2019-002E,2026-07-19T10:57:23.552640,14.38604488,.00020293,86.4225,11.6981,104.0859,256.0565,0,U,43926,999,39486,.15781766E-4,.68E-6,0
IRIDIUM 172,2019-002F,2026-07-19T11:35:46.950720,14.34218207,.00022074,86.3996,340.0710,92.1571,267.9877,0,U,43927,999,39359,.24288689E-4,.88E-6,0
IRIDIUM 175,2019-002G,2026-07-19T12:10:11.387136,14.43628585,.00054831,86.4507,277.0118,107.1024,253.0778,0,U,43928,999,40364,.43419598E-4,.167E-5,0
IRIDIUM 171,2019-002H,2026-07-19T11:08:22.999776,14.34217188,.00022618,86.4006,340.3886,96.4134,263.7319,0,U,43929,999,39358,.5549662E-5,.35E-6,0
IRIDIUM 170,2019-002J,2026-07-19T15:41:31.577280,14.72252855,.00022187,86.6116,339.9670,89.1141,271.0331,0,U,43930,999,40403,.5568357E-4,.376E-5,0
IRIDIUM 167,2019-002K,2026-07-19T10:59:14.972352,14.34217726,.00023816,86.3997,340.1043,98.0548,262.0918,0,U,43931,999,39358,.4450735E-5,.32E-6,0
IRIDIUM 181,2023-068S,2026-07-19T01:36:55.184832,14.43308329,.00023802,86.4474,43.4579,84.1407,276.0065,0,U,56726,999,16703,.36201095E-4,.142E-5,0
IRIDIUM 177,2023-068T,2026-07-19T08:51:12.653280,14.80027979,.00022183,86.1988,313.5135,97.3113,262.8360,0,U,56727,999,17112,.65985965E-4,.526E-5,0
IRIDIUM 174,2023-068U,2026-07-19T15:23:34.765440,14.72257777,.00019302,86.6123,340.1228,91.8367,268.3071,0,U,56728,999,17079,.55366328E-4,.374E-5,0
IRIDIUM 178,2023-068V,2026-07-19T11:50:06.281664,14.80021178,.00022258,86.6543,11.8577,91.7594,268.3883,0,U,56729,999,17114,.9552828E-5,.99E-6,0
IRIDIUM 179,2023-068W,2026-07-19T11:42:24.389856,14.80023825,.00023747,86.6770,20.9343,93.8326,266.3167,0,U,56730,999,17114,.13902863E-4,.131E-5,0
