IRIDIUM 154             
1 43574U 18061F   26200.32512151  .00000018  00000+0 -73931-6 0  9997
2 43574  86.3936  43.3633 0002197  89.2216 270.9232 14.34217320418015
IRIDIUM 163             
1 43575U 18061G   26200.51539935  .00000057  00000+0  13115-4 0  9996
2 43575  86.3935  43.1977 0002123  87.8173 272.3266 14.34217733418010
IRIDIUM 156             
1 43576U 18061H   26200.49002628  .00000110  00000+0  32265-4 0  9995
2 43576  86.3936  43.2157 0002137  93.4361 266.7080 14.34218799418003
IRIDIUM 164             
1 43577U 18061J   26200.54076990 -.00000092  00000+0 -39835-4 0  9996
2 43577  86.3934  43.2355 0002232  88.5060 271.6392 14.34217329418053
IRIDIUM 159             
1 43578U 18061K   26200.50905591  .00000029  00000+0  33757-5 0  9997
2 43578  86.3937  43.1848 0002134  87.7411 272.4029 14.34217711418012
IRIDIUM 180             
1 43922U 19002A   26200.64808979 -.00000080  00000+0 -35517-4 0  9997
2 43922  86.3992 340.0287 0002053  91.4543 268.6888 14.34217279393640
IRIDIUM 176             
1 43923U 19002B   26200.44376658  .00000377  00000+0  55883-4 0  9995
2 43923  86.6117 340.0527 0002342  91.4791 268.6695 14.72252122403990
IRIDIUM 168             
1 43924U 19002C   26200.43244278  .00000121  00000+0  36149-4 0  9998
2 43924  86.3998 340.1965 0002198  90.7646 269.3802 14.34217657393596
IRIDIUM 173             
1 43925U 19002D   26200.62906179  .00000080  00000+0  21386-4 0  9996
2 43925  86.3996 340.0021 0002146  92.8939 267.2503 14.34218147393600
IRIDIUM 169             
1 43926U 19002E   26200.45652260  .00000068  00000+0  15782-4 0  9996
2 43926  86.4225  11.6981 0002029 104.0859 256.0565 14.38604488394864
IRIDIUM 172             
1 43927U 19002F   26200.48318230  .00000088  00000+0  24289-4 0  9990
2 43927  86.3996 340.0710 0002207  92.1571 267.9877 14.34218207393596
IRIDIUM 175             
1 43928U 19002G   26200.50707624  .00000167  00000+0  43420-4 0  9999
2 43928  86.4507 277.0118 0005483 107.1024 253.0778 14.43628585403644
IRIDIUM 171             
1 43929U 19002H   26200.46415509  .00000035  00000+0  55497-5 0  9995
2 43929  86.4006 340.3886 0002261  96.4134 263.7319 14.34217188393581
IRIDIUM 170             
1 43930U 19002J   26200.65383770  .00000376  00000+0  55684-4 0  9997
2 43930  86.6116 339.9670 0002218  89.1141 271.0331 14.72252855404032
IRIDIUM 167             
1 43931U 19002K   26200.45781218  .00000032  00000+0  44507-5 0  9997
2 43931  86.3997 340.1043 0002381  98.0548 262.0918 14.34217726393580
IRIDIUM 181             
1 56726U 23068S   26200.06730538  .00000142  00000+0  36201-4 0  9999
2 56726  86.4474  43.4579 0002380  84.1407 276.0065 14.43308329167030
IRIDIUM 177             
1 56727U 23068T   26200.36889645  .00000526  00000+0  65986-4 0  9995
2 56727  86.1988 313.5135 0002218  97.3113 262.8360 14.80027979171123
IRIDIUM 174             
1 56728U 23068U   26200.64137460  .00000374  00000+0  55366-4 0  9990
2 56728  86.6123 340.1228 0001930  91.8367 268.3071 14.72257777170793
IRIDIUM 178             
1 56729U 23068V   26200.49312826  .00000099  00000+0  95528-5 0  9994
2 56729  86.6543  11.8577 0002225  91.7594 268.3883 14.80021178171142
IRIDIUM 179             
1 56730U 23068W   26200.48778229  .00000131  00000+0  13903-4 0  9991
2 56730  86.6770  20.9343 0002374  93.8326 266.3167 14.80023825171143
